{"type": "FeatureCollection", "features": [ {"type": "Feature", "properties": {"norad_id": 31768, "name": "FENGYUN 1C DEB", "group": "fengyun-1c-debris", "lat": 23.351492183305343, "lon": 54.4665740723806, "alt_km": 626.8079423571708, "timestamp": "2025-12-11T15:53:39.826752+00:00", "meta": {"OBJECT_NAME": "FENGYUN 1C DEB", "OBJECT_ID": "1999-025CFT", "EPOCH": "2025-12-10T04:08:02.023296", "MEAN_MOTION": 14.75991189, "ECCENTRICITY": 0.002638, "INCLINATION": 99.0421, "RA_OF_ASC_NODE": 56.7434, "ARG_OF_PERICENTER": 349.7822, "MEAN_ANOMALY": 40.9149, "EPHEMERIS_TYPE": 0, "CLASSIFICATION_TYPE": "U", "NORAD_CAT_ID": 31768, "ELEMENT_SET_NO": 999, "REV_AT_EPOCH": 96835, "BSTAR": 0.0037376946, "MEAN_MOTION_DOT": 0.00025906, "MEAN_MOTION_DDOT": 0}, "tle": {"line1": "1 31768U 99025CFT 25344.17224564  .00025906  00000+0  37377-2 0  9999", "line2": "2 31768  99.0421  56.7434 0026380 349.7822  40.9149 14.75991189968357"}}, "geometry": {"type": "Point", "coordinates": [54.4665740723806, 23.351492183305343]}}, {"type": "Feature", "properties": {"norad_id": 31772, "name": "FENGYUN 1C DEB", "group": "fengyun-1c-debris", "lat": 18.949846696651388, "lon": -99.76056678444328, "alt_km": 865.4946539717284, "timestamp": "2025-12-11T15:53:39.826764+00:00", "meta": {"OBJECT_NAME": "FENGYUN 1C DEB", "OBJECT_ID": "1999-025CFX", "EPOCH": "2025-12-10T05:46:54.724224", "MEAN_MOTION": 14.11682469, "ECCENTRICITY": 0.01363, "INCLINATION": 98.4728, "RA_OF_ASC_NODE": 261.8302, "ARG_OF_PERICENTER": 120.9523, "MEAN_ANOMALY": 240.5127, "EPHEMERIS_TYPE": 0, "CLASSIFICATION_TYPE": "U", "NORAD_CAT_ID": 31772, "ELEMENT_SET_NO": 999, "REV_AT_EPOCH": 70848, "BSTAR": 0.0012664, "MEAN_MOTION_DOT": 2.476e-05, "MEAN_MOTION_DDOT": 0}, "tle": {"line1": "1 31772U 99025CFX 25344.24091116  .00002476  00000+0  12664-2 0  9996", "line2": "2 31772  98.4728 261.8302 0136300 120.9523 240.5127 14.11682469708487"}}, "geometry": {"type": "Point", "coordinates": [-99.76056678444328, 18.949846696651388]}}, {"type": "Feature", "properties": {"norad_id": 31773, "name": "FENGYUN 1C DEB", "group": "fengyun-1c-debris", "lat": -38.85279739995059, "lon": 149.18152673586226, "alt_km": 636.9126594910913, "timestamp": "2025-12-11T15:53:39.826775+00:00", "meta": {"OBJECT_NAME": "FENGYUN 1C DEB", "OBJECT_ID": "1999-025CFY", "EPOCH": "2025-12-08T05:22:19.576416", "MEAN_MOTION": 14.72657344, "ECCENTRICITY": 0.00387845, "INCLINATION": 98.9512, "RA_OF_ASC_NODE": 332.6908, "ARG_OF_PERICENTER": 192.9231, "MEAN_ANOMALY": 167.0984, "EPHEMERIS_TYPE": 0, "CLASSIFICATION_TYPE": "U", "NORAD_CAT_ID": 31773, "ELEMENT_SET_NO": 999, "REV_AT_EPOCH": 65108, "BSTAR": 0.0024881377, "MEAN_MOTION_DOT": 0.00016017, "MEAN_MOTION_DDOT": 0}, "tle": {"line1": "1 31773U 99025CFY 25342.22383769  .00016017  00000+0  24881-2 0  9991", "line2": "2 31773  98.9512 332.6908 0038784 192.9231 167.0984 14.72657344651083"}}, "geometry": {"type": "Point", "coordinates": [149.18152673586226, -38.85279739995059]}}, {"type": "Feature", "properties": {"norad_id": 31776, "name": "FENGYUN 1C DEB", "group": "fengyun-1c-debris", "lat": 34.89878476699666, "lon": -128.2168903997841, "alt_km": 866.1990223437224, "timestamp": "2025-12-11T15:53:39.826785+00:00", "meta": {"OBJECT_NAME": "FENGYUN 1C DEB", "OBJECT_ID": "1999-025CGB", "EPOCH": "2025-12-10T10:30:15.554592", "MEAN_MOTION": 14.18530208, "ECCENTRICITY": 0.00545226, "INCLINATION": 99.0756, "RA_OF_ASC_NODE": 44.129, "ARG_OF_PERICENTER": 341.0208, "MEAN_ANOMALY": 33.1923, "EPHEMERIS_TYPE": 0, "CLASSIFICATION_TYPE": "U", "NORAD_CAT_ID": 31776, "ELEMENT_SET_NO": 999, "REV_AT_EPOCH": 94848, "BSTAR": 0.0019236943, "MEAN_MOTION_DOT": 3.993e-05, "MEAN_MOTION_DDOT": 0}, "tle": {"line1": "1 31776U 99025CGB 25344.43768003  .00003993  00000+0  19237-2 0  9995", "line2": "2 31776  99.0756  44.1290 0054522 341.0208  33.1923 14.18530208948484"}}, "geometry": {"type": "Point", "coordinates": [-128.2168903997841, 34.89878476699666]}}, {"type": "Feature", "properties": {"norad_id": 31779, "name": "FENGYUN 1C DEB", "group": "fengyun-1c-debris", "lat": -2.823763614864708, "lon": -94.00170481739158, "alt_km": 906.7244684025527, "timestamp": "2025-12-11T15:53:39.826797+00:00", "meta": {"OBJECT_NAME": "FENGYUN 1C DEB", "OBJECT_ID": "1999-025CGE", "EPOCH": "2025-12-11T05:54:48.112416", "MEAN_MOTION": 14.41592564, "ECCENTRICITY": 0.02132087, "INCLINATION": 99.2981, "RA_OF_ASC_NODE": 265.0826, "ARG_OF_PERICENTER": 187.2898, "MEAN_ANOMALY": 172.5175, "EPHEMERIS_TYPE": 0, "CLASSIFICATION_TYPE": "U", "NORAD_CAT_ID": 31779, "ELEMENT_SET_NO": 999, "REV_AT_EPOCH": 96988, "BSTAR": 0.00043043868, "MEAN_MOTION_DOT": 1.776e-05, "MEAN_MOTION_DDOT": 0}, "tle": {"line1": "1 31779U 99025CGE 25345.24639019  .00001776  00000+0  43044-3 0  9993", "line2": "2 31779  99.2981 265.0826 0213208 187.2898 172.5175 14.41592564969884"}}, "geometry": {"type": "Point", "coordinates": [-94.00170481739158, -2.823763614864708]}}, {"type": "Feature", "properties": {"norad_id": 31780, "name": "FENGYUN 1C DEB", "group": "fengyun-1c-debris", "lat": -29.862708465955848, "lon": -47.24442673595602, "alt_km": 763.396104216079, "timestamp": "2025-12-11T15:53:39.826808+00:00", "meta": {"OBJECT_NAME": "FENGYUN 1C DEB", "OBJECT_ID": "1999-025CGF", "EPOCH": "2025-12-10T20:58:32.443104", "MEAN_MOTION": 14.69527931, "ECCENTRICITY": 0.0150896, "INCLINATION": 99.2859, "RA_OF_ASC_NODE": 137.2501, "ARG_OF_PERICENTER": 58.933, "MEAN_ANOMALY": 302.6584, "EPHEMERIS_TYPE": 0, "CLASSIFICATION_TYPE": "U", "NORAD_CAT_ID": 31780, "ELEMENT_SET_NO": 999, "REV_AT_EPOCH": 98470, "BSTAR": 0.00042992, "MEAN_MOTION_DOT": 2.967e-05, "MEAN_MOTION_DDOT": 0}, "tle": {"line1": "1 31780U 99025CGF 25344.87398661  .00002967  00000+0  42992-3 0  9992", "line2": "2 31780  99.2859 137.2501 0150896  58.9330 302.6584 14.69527931984702"}}, "geometry": {"type": "Point", "coordinates": [-47.24442673595602, -29.862708465955848]}}, {"type": "Feature", "properties": {"norad_id": 31781, "name": "FENGYUN 1C DEB", "group": "fengyun-1c-debris", "lat": -14.75112194402883, "lon": -26.032100876274992, "alt_km": 830.3381413345451, "timestamp": "2025-12-11T15:53:39.826818+00:00", "meta": {"OBJECT_NAME": "FENGYUN 1C DEB", "OBJECT_ID": "1999-025CGG", "EPOCH": "2025-12-09T06:52:06.193920", "MEAN_MOTION": 14.12885604, "ECCENTRICITY": 0.0203697, "INCLINATION": 99.4979, "RA_OF_ASC_NODE": 153.9738, "ARG_OF_PERICENTER": 283.3787, "MEAN_ANOMALY": 74.4748, "EPHEMERIS_TYPE": 0, "CLASSIFICATION_TYPE": "U", "NORAD_CAT_ID": 31781, "ELEMENT_SET_NO": 999, "REV_AT_EPOCH": 68299, "BSTAR": 0.004746, "MEAN_MOTION_DOT": 0.0001072, "MEAN_MOTION_DDOT": 0}, "tle": {"line1": "1 31781U 99025CGG 25343.28618280  .00010720  00000+0  47460-2 0  9999", "line2": "2 31781  99.4979 153.9738 0203697 283.3787  74.4748 14.12885604682997"}}, "geometry": {"type": "Point", "coordinates": [-26.032100876274992, -14.75112194402883]}}, {"type": "Feature", "properties": {"norad_id": 31782, "name": "FENGYUN 1C DEB", "group": "fengyun-1c-debris", "lat": -27.422029172664864, "lon": -37.851073662015494, "alt_km": 827.1362306343935, "timestamp": "2025-12-11T15:53:39.826828+00:00", "meta": {"OBJECT_NAME": "FENGYUN 1C DEB", "OBJECT_ID": "1999-025CGH", "EPOCH": "2025-12-08T16:46:19.717248", "MEAN_MOTION": 14.36221911, "ECCENTRICITY": 0.00796709, "INCLINATION": 98.9039, "RA_OF_ASC_NODE": 143.7533, "ARG_OF_PERICENTER": 8.9177, "MEAN_ANOMALY": 5.7329, "EPHEMERIS_TYPE": 0, "CLASSIFICATION_TYPE": "U", "NORAD_CAT_ID": 31782, "ELEMENT_SET_NO": 999, "REV_AT_EPOCH": 96633, "BSTAR": 0.0006706212, "MEAN_MOTION_DOT": 1.982e-05, "MEAN_MOTION_DDOT": 0}, "tle": {"line1": "1 31782U 99025CGH 25342.69883932  .00001982  00000+0  67062-3 0  9993", "line2": "2 31782  98.9039 143.7533 0079670   8.9177   5.7329 14.36221911966331"}}, "geometry": {"type": "Point", "coordinates": [-37.851073662015494, -27.422029172664864]}}, {"type": "Feature", "properties": {"norad_id": 31783, "name": "FENGYUN 1C DEB", "group": "fengyun-1c-debris", "lat": -33.04980113922663, "lon": 168.7157333835225, "alt_km": 940.6279912873488, "timestamp": "2025-12-11T15:53:39.826840+00:00", "meta": {"OBJECT_NAME": "FENGYUN 1C DEB", "OBJECT_ID": "1999-025CGJ", "EPOCH": "2025-12-09T19:23:45.829248", "MEAN_MOTION": 14.08820049, "ECCENTRICITY": 0.01044162, "INCLINATION": 98.6045, "RA_OF_ASC_NODE": 352.5993, "ARG_OF_PERICENTER": 58.2322, "MEAN_ANOMALY": 116.4574, "EPHEMERIS_TYPE": 0, "CLASSIFICATION_TYPE": "U", "NORAD_CAT_ID": 31783, "ELEMENT_SET_NO": 999, "REV_AT_EPOCH": 89179, "BSTAR": 0.00080306341, "MEAN_MOTION_DOT": 1.417e-05, "MEAN_MOTION_DDOT": 0}, "tle": {"line1": "1 31783U 99025CGJ 25343.80816932  .00001417  00000+0  80306-3 0  9993", "line2": "2 31783  98.6045 352.5993 0104416  58.2322 116.4574 14.08820049891798"}}, "geometry": {"type": "Point", "coordinates": [168.7157333835225, -33.04980113922663]}}, {"type": "Feature", "properties": {"norad_id": 31788, "name": "FENGYUN 1C DEB", "group": "fengyun-1c-debris", "lat": 57.14894656341907, "lon": -31.437927089996275, "alt_km": 785.3162175292327, "timestamp": "2025-12-11T15:53:39.826853+00:00", "meta": {"OBJECT_NAME": "FENGYUN 1C DEB", "OBJECT_ID": "1999-025CGP", "EPOCH": "2025-12-10T16:12:42.679872", "MEAN_MOTION": 13.45072095, "ECCENTRICITY": 0.04628529, "INCLINATION": 102.5562, "RA_OF_ASC_NODE": 127.1384, "ARG_OF_PERICENTER": 91.3638, "MEAN_ANOMALY": 290.4566, "EPHEMERIS_TYPE": 0, "CLASSIFICATION_TYPE": "U", "NORAD_CAT_ID": 31788, "ELEMENT_SET_NO": 999, "REV_AT_EPOCH": 90577, "BSTAR": 0.003460025, "MEAN_MOTION_DOT": 3.836e-05, "MEAN_MOTION_DDOT": 0}, "tle": {"line1": "1 31788U 99025CGP 25344.67549398  .00003836  00000+0  34600-2 0  9995", "line2": "2 31788 102.5562 127.1384 0462852  91.3638 290.4566 13.45072095905779"}}, "geometry": {"type": "Point", "coordinates": [-31.437927089996275, 57.14894656341907]}}]}